{
"type": "FeatureCollection",
"name": "spray_zone_polygons",
"crs": { "type": "name", "properties": { "name": "urn:ogc:def:crs:EPSG::32633" } },
"features": [
{ "type": "Feature", "properties": { "polygon_id": 1, "area_m2": 182.58949414333884, "raster_value": 1 }, "geometry": { "type": "Polygon", "coordinates": [ [ [ 324795.085609623463824, 6006673.375738380476832 ], [ 324791.339957618154585, 6006670.789541426114738 ], [ 324791.607504189945757, 6006663.387667383998632 ], [ 324800.436541059578303, 6006656.877585394307971 ], [ 324806.768476592318621, 6006657.055943805724382 ], [ 324808.373756023182068, 6006660.266395197249949 ], [ 324807.481934117153287, 6006664.190280231647193 ], [ 324802.041820490441751, 6006669.541032551787794 ], [ 324795.085609623463824, 6006673.375738380476832 ] ] ] } },
{ "type": "Feature", "properties": { "polygon_id": 2, "area_m2": 555.96425182127052, "raster_value": 1 }, "geometry": { "type": "Polygon", "coordinates": [ [ [ 324724.542496857058723, 6006637.436518632806838 ], [ 324721.153573614195921, 6006635.563755320385098 ], [ 324717.229557227692567, 6006625.664863528683782 ], [ 324719.191565420944244, 6006622.008516110479832 ], [ 324726.593687240907457, 6006616.925301406532526 ], [ 324729.2691529589938, 6006605.332004712894559 ], [ 324733.728262489079498, 6006603.905137428082526 ], [ 324738.098189828626346, 6006608.096560078673065 ], [ 324745.321947267395444, 6006609.434248158708215 ], [ 324748.710870510258246, 6006611.663728292100132 ], [ 324750.048603369330522, 6006616.390226174145937 ], [ 324744.87603631435195, 6006620.760007235221565 ], [ 324743.181574692949653, 6006624.416354654356837 ], [ 324737.02800354140345, 6006627.002551608718932 ], [ 324731.320343342842534, 6006631.283153464086354 ], [ 324728.734059815353248, 6006635.296217704191804 ], [ 324724.542496857058723, 6006637.436518632806838 ] ] ] } },
{ "type": "Feature", "properties": { "polygon_id": 3, "area_m2": 490.45774566771632, "raster_value": 1 }, "geometry": { "type": "Polygon", "coordinates": [ [ [ 324690.653264428197872, 6006620.84918644092977 ], [ 324681.378316605580039, 6006618.17381028085947 ], [ 324681.02158784319181, 6006610.236861006356776 ], [ 324677.186753647285514, 6006605.15364630240947 ], [ 324677.900211172061972, 6006601.854015705175698 ], [ 324685.39151518268045, 6006596.057367358356714 ], [ 324694.220552052312996, 6006600.605506830848753 ], [ 324707.241151880240068, 6006603.637599811889231 ], [ 324709.916617598326411, 6006606.669692792929709 ], [ 324707.597880642628297, 6006613.001416371203959 ], [ 324701.890220444067381, 6006614.071566835977137 ], [ 324690.653264428197872, 6006620.84918644092977 ] ] ] } },
{ "type": "Feature", "properties": { "polygon_id": 4, "area_m2": 469.53686125038121, "raster_value": 1 }, "geometry": { "type": "Polygon", "coordinates": [ [ [ 324658.101764858409297, 6006592.579378350637853 ], [ 324648.559270463942084, 6006590.082360601052642 ], [ 324646.597262270690408, 6006580.80772324744612 ], [ 324653.464290947071277, 6006570.552114633843303 ], [ 324659.707044289214537, 6006566.182333572767675 ], [ 324662.114963435509708, 6006566.984946420416236 ], [ 324671.033182495739311, 6006576.437942185439169 ], [ 324671.835822211112827, 6006579.559214372187853 ], [ 324671.211546876933426, 6006586.78273000381887 ], [ 324669.606267446069978, 6006589.279747753404081 ], [ 324658.101764858409297, 6006592.579378350637853 ] ] ] } },
{ "type": "Feature", "properties": { "polygon_id": 5, "area_m2": 390.94336959944366, "raster_value": 1 }, "geometry": { "type": "Polygon", "coordinates": [ [ [ 324504.797579213103745, 6006578.043167881667614 ], [ 324499.803376539377496, 6006578.043167881667614 ], [ 324495.522631390485913, 6006572.24651953484863 ], [ 324483.12630689679645, 6006569.660322580486536 ], [ 324481.966938418976497, 6006565.112183108925819 ], [ 324484.018128802825231, 6006558.512921914458275 ], [ 324494.452445103263017, 6006554.143140853382647 ], [ 324505.154307975550182, 6006558.602101119235158 ], [ 324505.24349016614724, 6006567.787559268996119 ], [ 324507.473044931190088, 6006573.762566026300192 ], [ 324504.797579213103745, 6006578.043167881667614 ] ] ] } },
{ "type": "Feature", "properties": { "polygon_id": 6, "area_m2": 315.9606293455804, "raster_value": 1 }, "geometry": { "type": "Polygon", "coordinates": [ [ [ 325002.345020583074074, 6006570.90883145481348 ], [ 324998.866915149614215, 6006568.946888937614858 ], [ 324995.745538478484377, 6006562.436806948855519 ], [ 324996.191449431527872, 6006559.047997145913541 ], [ 325011.619968405691907, 6006550.397614229470491 ], [ 325015.454802601598203, 6006550.754331050440669 ], [ 325021.073280609562062, 6006556.550979397259653 ], [ 325021.073280609562062, 6006560.92076045833528 ], [ 325002.345020583074074, 6006570.90883145481348 ] ] ] } },
{ "type": "Feature", "properties": { "polygon_id": 7, "area_m2": 2590.6703775723472, "raster_value": 1 }, "geometry": { "type": "Polygon", "coordinates": [ [ [ 324961.499577287235297, 6006510.623688651248813 ], [ 324958.021471853775438, 6006508.66174613405019 ], [ 324956.148645851120818, 6006500.903155270032585 ], [ 324952.402993845811579, 6006498.852033548057079 ], [ 324942.77131726074731, 6006501.794947323389351 ], [ 324932.069454388518352, 6006507.591595670208335 ], [ 324923.151235328288749, 6006504.202785867266357 ], [ 324921.010862753842957, 6006498.049420699477196 ], [ 324917.354392939130776, 6006495.106506924144924 ], [ 324909.952271119167563, 6006496.890091029927135 ], [ 324901.569145202520303, 6006494.749790102243423 ], [ 324894.52375214494532, 6006495.552402950823307 ], [ 324887.567541277967393, 6006489.042320961132646 ], [ 324887.92427004041383, 6006479.856862812303007 ], [ 324890.510553567844909, 6006470.760583868250251 ], [ 324901.569145202520303, 6006466.747519628144801 ], [ 324911.557550549972802, 6006474.506110492162406 ], [ 324917.889486082771327, 6006475.130364929325879 ], [ 324927.699527048971504, 6006467.371774065308273 ], [ 324932.158636579115409, 6006465.677369164302945 ], [ 324934.566555725352373, 6006458.721391148865223 ], [ 324938.579754302452784, 6006455.154222935438156 ], [ 324943.217228213790804, 6006454.975864524953067 ], [ 324959.53756909398362, 6006465.231473137624562 ], [ 324961.053666334250011, 6006468.976999761536717 ], [ 324960.251026618818287, 6006480.659475659951568 ], [ 324962.480581383861136, 6006484.31582307908684 ], [ 324968.544970344810281, 6006488.239708113484085 ], [ 324965.512775864335708, 6006507.769954080693424 ], [ 324961.499577287235297, 6006510.623688651248813 ] ] ] } },
{ "type": "Feature", "properties": { "polygon_id": 8, "area_m2": 1049.7185976040755, "raster_value": 1 }, "geometry": { "type": "Polygon", "coordinates": [ [ [ 324747.729866413632408, 6006476.468053009361029 ], [ 324744.340943170769606, 6006474.773648108355701 ], [ 324742.914028121158481, 6006469.422895788215101 ], [ 324739.435922687640414, 6006466.925878038629889 ], [ 324734.976813157554716, 6006467.817670091986656 ], [ 324729.893428293173201, 6006472.811705591157079 ], [ 324717.051192846498452, 6006471.919913537800312 ], [ 324709.292342264088802, 6006465.320652343332767 ], [ 324708.132973786268849, 6006457.383703068830073 ], [ 324709.916617598326411, 6006453.013922007754445 ], [ 324722.580488663807046, 6006444.185180679894984 ], [ 324733.906626870273612, 6006445.344510348513722 ], [ 324737.563096684985794, 6006451.230337901040912 ], [ 324741.308748690295033, 6006452.924742802046239 ], [ 324746.481315745215397, 6006451.230337901040912 ], [ 324749.781056797481142, 6006445.790406375192106 ], [ 324754.329348518222105, 6006445.790406375192106 ], [ 324756.202174520876724, 6006449.892649821005762 ], [ 324752.099793753179256, 6006473.257601617835462 ], [ 324750.583696512912866, 6006475.665440161712468 ], [ 324747.729866413632408, 6006476.468053009361029 ] ] ] } },
{ "type": "Feature", "properties": { "polygon_id": 9, "area_m2": 3074.3122335055427, "raster_value": 1 }, "geometry": { "type": "Polygon", "coordinates": [ [ [ 324545.37547593715135, 6006495.909119771793485 ], [ 324536.635621258115862, 6006491.004263478331268 ], [ 324503.549028544686735, 6006489.042320961132646 ], [ 324498.911554633348715, 6006483.156493409536779 ], [ 324500.070923111226875, 6006477.716561883687973 ], [ 324499.089919014601037, 6006470.493046252056956 ], [ 324502.478842257463839, 6006468.62028294056654 ], [ 324517.283085897448473, 6006469.244537377730012 ], [ 324525.13111867045518, 6006463.091172209940851 ], [ 324530.749596678360831, 6006455.956835783086717 ], [ 324526.914762482454535, 6006445.344510348513722 ], [ 324532.800787062209565, 6006440.082937234081328 ], [ 324539.043540404411033, 6006440.082937234081328 ], [ 324542.075734884885605, 6006447.217273660935462 ], [ 324549.656221086042933, 6006450.873621079139411 ], [ 324563.122731867013499, 6006448.554961740970612 ], [ 324568.919574256113265, 6006446.147123197093606 ], [ 324573.021955023868941, 6006441.598983724601567 ], [ 324576.678424838522915, 6006441.955700546503067 ], [ 324583.099542561918497, 6006450.427725052461028 ], [ 324583.545453514903784, 6006458.364674326963723 ], [ 324577.035153600969352, 6006491.093442684039474 ], [ 324572.576044070825446, 6006493.501281227916479 ], [ 324567.403477015905082, 6006491.717697121202946 ], [ 324561.24990586435888, 6006492.96620599552989 ], [ 324555.185516903409734, 6006490.915084273554385 ], [ 324545.37547593715135, 6006495.909119771793485 ] ] ] } },
{ "type": "Feature", "properties": { "polygon_id": 10, "area_m2": 240.66373781640974, "raster_value": 1 }, "geometry": { "type": "Polygon", "coordinates": [ [ [ 324577.213517982163467, 6006435.178080941550434 ], [ 324573.289501595660113, 6006431.967629549093544 ], [ 324574.092141311091837, 6006421.622841730713844 ], [ 324575.964967313746456, 6006413.775071661919355 ], [ 324580.245712462638039, 6006411.991487555205822 ], [ 324586.845194567169528, 6006418.769107160158455 ], [ 324586.845194567169528, 6006429.738149415701628 ], [ 324585.061550755170174, 6006432.324346370063722 ], [ 324577.213517982163467, 6006435.178080941550434 ] ] ] } },
{ "type": "Feature", "properties": { "polygon_id": 11, "area_m2": 574.5429197546473, "raster_value": 1 }, "geometry": { "type": "Polygon", "coordinates": [ [ [ 324836.376963872287888, 6006403.251925432123244 ], [ 324833.166405010619201, 6006401.646699736826122 ], [ 324832.27458310459042, 6006399.060502781532705 ], [ 324834.860866632021498, 6006390.410119865089655 ], [ 324832.27458310459042, 6006382.740708206780255 ], [ 324833.255587201216258, 6006369.185468995943666 ], [ 324835.752688538050279, 6006361.961953364312649 ], [ 324834.414955679036211, 6006356.254484223201871 ], [ 324837.982243303151336, 6006352.41977839358151 ], [ 324844.40336102648871, 6006352.330599188804626 ], [ 324847.613919888157398, 6006356.254484223201871 ], [ 324844.135814454697538, 6006376.498163833282888 ], [ 324846.27618702914333, 6006381.848916153423488 ], [ 324846.097822647949215, 6006392.46124158706516 ], [ 324843.868267882848158, 6006397.544456291012466 ], [ 324836.376963872287888, 6006403.251925432123244 ] ] ] } },
{ "type": "Feature", "properties": { "polygon_id": 12, "area_m2": 185.50831740776948, "raster_value": 1 }, "geometry": { "type": "Polygon", "coordinates": [ [ [ 324822.553724328929093, 6006339.399614415131509 ], [ 324816.310970986785833, 6006337.705209514126182 ], [ 324813.903051840548869, 6006335.297370970249176 ], [ 324814.616509365325328, 6006327.717138516716659 ], [ 324817.024428511620499, 6006325.130941562354565 ], [ 324824.604914712777827, 6006326.557808847166598 ], [ 324831.293579007964581, 6006330.660052292980254 ], [ 324829.688299577101134, 6006337.794388719834387 ], [ 324822.553724328929093, 6006339.399614415131509 ] ] ] } },
{ "type": "Feature", "properties": { "polygon_id": 13, "area_m2": 517.57019385850754, "raster_value": 1 }, "geometry": { "type": "Polygon", "coordinates": [ [ [ 324823.356364044360816, 6006294.096578107215464 ], [ 324816.132606605591718, 6006289.726797046139836 ], [ 324811.76267926604487, 6006284.465223931707442 ], [ 324810.51412859762786, 6006279.203650816343725 ], [ 324811.584314884850755, 6006272.60438962187618 ], [ 324816.489335367979947, 6006270.999163926579058 ], [ 324821.03762708872091, 6006277.865962736308575 ], [ 324826.03182976244716, 6006278.846933995373547 ], [ 324829.331570814712904, 6006275.547303398139775 ], [ 324831.561125579755753, 6006263.418931473046541 ], [ 324834.771684441424441, 6006261.813705776818097 ], [ 324839.587522733956575, 6006262.61631862539798 ], [ 324841.460348736611195, 6006266.27266604360193 ], [ 324837.536332350107841, 6006282.592460619285703 ], [ 324830.847668054921087, 6006290.886126714758575 ], [ 324823.356364044360816, 6006294.096578107215464 ] ] ] } },
{ "type": "Feature", "properties": { "polygon_id": 14, "area_m2": 1578.0852562316829, "raster_value": 1 }, "geometry": { "type": "Polygon", "coordinates": [ [ [ 324708.400520358060021, 6006266.005128427408636 ], [ 324697.252746532787569, 6006263.508110678754747 ], [ 324686.729248041694518, 6006263.775648294016719 ], [ 324682.180956321011763, 6006259.405867232941091 ], [ 324672.370915354753379, 6006255.749519814737141 ], [ 324664.701246962940786, 6006247.545032924041152 ], [ 324659.350315526826307, 6006234.346510535106063 ], [ 324659.350315526826307, 6006230.957700732164085 ], [ 324663.274331913329661, 6006225.339410796761513 ], [ 324665.682251059566624, 6006223.823364306241274 ], [ 324681.913409749162383, 6006221.950600993819535 ], [ 324697.87702186696697, 6006231.58195517025888 ], [ 324700.998398538096808, 6006238.002857953310013 ], [ 324711.075986076146364, 6006244.512939943000674 ], [ 324714.375727128412109, 6006248.882721004076302 ], [ 324712.859629888145719, 6006263.240573062561452 ], [ 324708.400520358060021, 6006266.005128427408636 ] ] ] } },
{ "type": "Feature", "properties": { "polygon_id": 15, "area_m2": 183.094522150351, "raster_value": 1 }, "geometry": { "type": "Polygon", "coordinates": [ [ [ 324772.87924416345777, 6006159.971053289249539 ], [ 324766.547308630717453, 6006158.365827593021095 ], [ 324762.26656348182587, 6006154.798659379594028 ], [ 324761.820652528782375, 6006151.231491166166961 ], [ 324764.585300437465776, 6006146.504993284121156 ], [ 324773.325155116501264, 6006144.453871561214328 ], [ 324777.338353693601675, 6006146.594172488898039 ], [ 324776.803260549961124, 6006157.295677129179239 ], [ 324772.87924416345777, 6006159.971053289249539 ] ] ] } },
{ "type": "Feature", "properties": { "polygon_id": 16, "area_m2": 452.17503244649384, "raster_value": 1 }, "geometry": { "type": "Polygon", "coordinates": [ [ [ 324755.75626356783323, 6006111.457565588876605 ], [ 324748.26495955727296, 6006105.928454858250916 ], [ 324744.608489742560778, 6006097.456430351361632 ], [ 324747.64068422303535, 6006088.806047434918582 ], [ 324753.169980040402152, 6006082.83104067761451 ], [ 324755.934627949085552, 6006082.028427829034626 ], [ 324762.444927863019984, 6006084.347087168134749 ], [ 324765.655486724688672, 6006088.895226639695466 ], [ 324766.279762058926281, 6006094.51351657602936 ], [ 324763.336749769048765, 6006107.622859759256244 ], [ 324755.75626356783323, 6006111.457565588876605 ] ] ] } },
{ "type": "Feature", "properties": { "polygon_id": 17, "area_m2": 279.32422788824596, "raster_value": 1 }, "geometry": { "type": "Polygon", "coordinates": [ [ [ 324606.554458690283354, 6006047.783612982369959 ], [ 324600.13334096694598, 6006044.483982385136187 ], [ 324600.579251919931266, 6006037.884721190668643 ], [ 324602.362895731988829, 6006033.693298540078104 ], [ 324607.357098405715078, 6006029.591055094264448 ], [ 324609.319106598966755, 6006024.686198801733553 ], [ 324613.778216129052453, 6006023.259331515990198 ], [ 324616.721228418929968, 6006027.89665019325912 ], [ 324615.829406512901187, 6006041.986964635550976 ], [ 324613.153940794873051, 6006046.089208080433309 ], [ 324606.554458690283354, 6006047.783612982369959 ] ] ] } },
{ "type": "Feature", "properties": { "polygon_id": 18, "area_m2": 929.90368649641186, "raster_value": 1 }, "geometry": { "type": "Polygon", "coordinates": [ [ [ 324569.989760543394368, 6006079.620589285157621 ], [ 324561.695816817344166, 6006077.926184384152293 ], [ 324559.287897671107203, 6006072.753790474496782 ], [ 324561.606634626747109, 6006067.938113386742771 ], [ 324563.122731867013499, 6006057.860863184556365 ], [ 324561.784999007941224, 6006052.777648480609059 ], [ 324563.657825010595843, 6006046.089208080433309 ], [ 324562.141727770387661, 6006030.928743174299598 ], [ 324565.61983320384752, 6006024.151123569346964 ], [ 324568.830392065516207, 6006022.54589787311852 ], [ 324580.959169987472706, 6006024.151123569346964 ], [ 324584.169728849141393, 6006029.769413504749537 ], [ 324583.545453514903784, 6006040.827634966000915 ], [ 324577.481064553954639, 6006051.350781195797026 ], [ 324576.410878266731743, 6006068.384009413421154 ], [ 324573.467865976854227, 6006077.747825973667204 ], [ 324569.989760543394368, 6006079.620589285157621 ] ] ] } }
]
}
